SARSAT 7 (NOAA 15)      
1 25338U 98030A   22261.44991300  .00000120  00000+0  68356-4 0  9998
2 25338  98.6390 289.7455 0010852  32.3031 327.8812 14.26171471266522
METEOSAT-8 (MSG-1)      
1 27509U 02040B   22260.56747970  .00000130  00000+0  00000+0 0  9998
2 27509   8.2057  50.1315 0002659 136.9592  55.1623  1.00267708 73530
GPS BIIR-08             
1 27663U 03005A   22260.79120791  .00000032  00000+0  00000+0 0  9993
2 27663  55.4535 269.3920 0126129  41.1380 165.8024  2.00559267143866
GPS BIIR-11             
1 28190U 04009A   22260.91852492 -.00000087  00000+0  00000+0 0  9999
2 28190  55.9451 330.3942 0089588 125.5432 327.9390  2.00558542135503
GPS BIIR-13             
1 28474U 04045A   22260.50099781 -.00000099  00000+0  00000+0 0  9996
2 28474  55.3812  19.7588 0202326 279.8898 110.4300  2.00421868130986
SARSAT 10 (NOAA 18)     
1 28654U 05018A   22261.47987449  .00000150  00000+0  10495-3 0  9991
2 28654  98.9419 331.8122 0015174  70.8211 289.4601 14.12776874893203
GPS BIIR-14M            
1 28874U 05038A   22260.88772170 -.00000082  00000+0  00000+0 0  9996
2 28874  56.0074 327.8335 0139711 275.0936 182.8649  2.00570462124391
METEOSAT-9 (MSG-2)      
1 28912U 05049B   22260.64313209  .00000122  00000+0  00000+0 0  9993
2 28912   6.2227  65.6774 0002247 185.6629  22.4668  1.00268282 61318
GOES 13                 
1 29155U 06018A   22261.21004363  .00000028  00000+0  00000+0 0  9997
2 29155   0.8157  95.7814 0006612 114.4211 284.2075  1.00275923 59795
GPS BIIR-16M            
1 29601U 06052A   22260.31806653  .00000031  00000+0  00000+0 0  9997
2 29601  55.4634 268.3526 0082641  75.0362 285.9021  2.00556170115957
GPS BIIR-17M            
1 32260U 07047A   22260.62544102 -.00000030  00000+0  00000+0 0  9999
2 32260  53.3366 136.7235 0143504  64.5755 296.9797  2.00569789109361
GPS BIIR-18M            
1 32384U 07062A   22260.67433028 -.00000085  00000+0  00000+0 0  9992
2 32384  56.1294 328.6152 0020829 145.5267  17.9233  2.00567343108067
SARSAT 12 (NOAA 19)     
1 33591U 09005A   22261.42083340  .00000117  00000+0  88133-4 0  9997
2 33591  99.1411 297.4806 0012947 288.1037  71.8723 14.12610162701578
GOES 14                 
1 35491U 09033A   22261.44173259 -.00000099  00000+0  00000+0 0  9992
2 35491   0.3942 267.4445 0017733 305.9744 198.5056  1.00273902 48445
GOES 15                 
1 36411U 10008A   22261.45172751  .00000047  00000+0  00000+0 0  9998
2 36411   0.3542 277.3220 0004334 247.8959 226.9980  1.00262682 45947
GPS BIIF-2              
1 37753U 11036A   22260.78934632 -.00000090  00000+0  00000+0 0  9998
2 37753  56.6456  25.1139 0118360  53.4470 342.7100  2.00566023 81833
GSAT0101 (GALILEO-PFM)  
1 37846U 11060A   22260.93236475 -.00000096  00000+0  00000+0 0  9991
2 37846  57.0290  18.8268 0001512  73.5611 286.4600  1.70475112 67926
GSAT0102 (GALILEO-FM2)  
1 37847U 11060B   22260.83678434 -.00000096  00000+0  00000+0 0  9996
2 37847  57.0298  18.8290 0001181 330.9520  17.1887  1.70475487 67797
LUCH 5A                 
1 37951U 11074B   22261.47834370 -.00000053  00000+0  00000+0 0  9994
2 37951   5.2466  95.9174 0004320  53.2825 187.3032  1.00272832 39471
METEOSAT-10 (MSG-3)     
1 38552U 12035B   22260.84809047  .00000055  00000+0  00000+0 0  9994
2 38552   1.6635  46.0248 0001277 138.6951 126.8101  1.00265406 37137
SARSAT 13 (METOP-B)     
1 38771U 12049A   22261.48096970  .00000054  00000+0  44711-4 0  9997
2 38771  98.7205 319.8287 0001801 105.3079  19.8719 14.21473789518940
GPS BIIF-3              
1 38833U 12053A   22260.22492267  .00000002  00000+0  00000+0 0  9992
2 38833  53.5252 199.5938 0128469  47.3358 313.7313  2.00562966 71985
GSAT0103 (GALILEO-FM3)  
1 38857U 12055A   22260.38513190 -.00000012  00000+0  00000+0 0  9998
2 38857  55.1610 139.1713 0002527 260.2364  99.8161  1.70473836 61678
GSAT0104 (GALILEO-FM4)  
1 38858U 12055B   22260.35510341 -.00000012  00000+0  00000+0 0  9991
2 38858  55.1606 139.1736 0000356 166.7848 193.2972  1.70474166 61670
GPS BIIF-4              
1 39166U 13023A   22260.58180564 -.00000078  00000+0  00000+0 0  9997
2 39166  55.6316 324.1820 0104246  38.4491 322.3476  2.00565531 68434
INSAT-3D                
1 39216U 13038B   22261.43653834 -.00000163  00000+0  00000+0 0  9994
2 39216   0.0163 156.6782 0001788  58.3248  21.5656  1.00273130 33583
GPS BIIF-5              
1 39533U 14008A   22260.58397922  .00000006  00000+0  00000+0 0  9997
2 39533  53.6178 205.0950 0060650 209.8172 149.8252  2.00558680 62230
LUCH 5V                 
1 39727U 14023A   22261.08029734 -.00000275  00000+0  00000+0 0  9997
2 39727   1.7132  76.4110 0003132 122.9518 281.2514  1.00275196548797
GPS BIIF-6              
1 39741U 14026A   22260.36905190 -.00000091  00000+0  00000+0 0  9991
2 39741  56.6058  24.6563 0026808 304.0313  55.7215  2.00549561 61082
GPS BIIF-7              
1 40105U 14045A   22260.45073705 -.00000030  00000+0  00000+0 0  9999
2 40105  54.7091 143.1313 0022726 111.0727 249.2420  2.00553614 58622
GSAT0201 (GALILEO 5)    
1 40128U 14050A   22260.37819682 -.00000101  00000+0  00000+0 0  9992
2 40128  50.2201 328.6201 1621104 127.3960 248.5042  1.85519314 52922
GSAT0202 (GALILEO 6)    
1 40129U 14050B   22261.17787588 -.00000094  00000+0  00000+0 0  9992
2 40129  50.2432 327.6513 1618191 128.2357 247.4807  1.85519956 55074
GPS BIIF-8              
1 40294U 14068A   22260.81847795 -.00000012  00000+0  00000+0 0  9991
2 40294  55.8874  84.2877 0043061  58.9874 301.4857  2.00578065 57765
GLONASS-K 2             
1 40315U 14075A   22260.75257484  .00000059  00000+0  00000+0 0  9996
2 40315  63.6793 237.9376 0019409 212.4095   3.3468  2.13101371 60696
GPS BIIF-9              
1 40534U 15013A   22259.96819965  .00000031  00000+0  00000+0 0  9991
2 40534  53.6507 260.9019 0070530  19.7029 340.5799  2.00576698 54362
GSAT0203 (GALILEO 7)    
1 40544U 15017A   22260.71242899 -.00000096  00000+0  00000+0 0  9999
2 40544  56.8247  18.8534 0003207 220.8462 139.1342  1.70476306 45877
GSAT0204 (GALILEO 8)    
1 40545U 15017B   22259.79217675 -.00000098  00000+0  00000+0 0  9992
2 40545  56.8294  18.8912 0003589 203.9257 156.0613  1.70475980  8906
GPS BIIF-10             
1 40730U 15033A   22260.62325414 -.00000076  00000+0  00000+0 0  9997
2 40730  55.1278 322.9650 0074683   7.5831 352.5886  2.00573626 52547
METEOSAT-11 (MSG-4)     
1 40732U 15034A   22260.84608486 -.00000013  00000+0  00000+0 0  9998
2 40732   0.4843  71.8825 0000916  49.8976 179.1467  1.00273309 26308
GSAT0205 (GALILEO 9)    
1 40889U 15045A   22260.14604100  .00000032  00000+0  00000+0 0  9995
2 40889  55.5686 259.4291 0003939 348.8939  11.1035  1.70473413 43677
GSAT0206 (GALILEO 10)   
1 40890U 15045B   22260.36680672  .00000033  00000+0  00000+0 0  9990
2 40890  55.5674 259.4186 0002977 320.4452  39.5399  1.70473415 43709
GPS BIIF-11             
1 41019U 15062A   22260.67198543 -.00000013  00000+0  00000+0 0  9997
2 41019  55.8748  84.1382 0080537 217.3118 142.1756  2.00562784 50382
ELEKTRO-L 2             
1 41105U 15074A   22261.41726707 -.00000122  00000+0  00000+0 0  9999
2 41105   3.2165  87.0328 0002842 106.8295 299.1605  1.00270571 24804
GSAT0209 (GALILEO 12)   
1 41174U 15079A   22261.12758381 -.00000009  00000+0  00000+0 0  9995
2 41174  55.1776 138.8551 0002981 329.1334  30.9302  1.70474184 42038
GSAT0208 (GALILEO 11)   
1 41175U 15079B   22260.76048540 -.00000010  00000+0  00000+0 0  9996
2 41175  55.1753 138.8636 0002341 334.1728  25.8966  1.70474019 42026
GPS BIIF-12             
1 41328U 16007A   22260.26161488 -.00000030  00000+0  00000+0 0  9992
2 41328  54.9240 143.8324 0062627 230.0172 129.5020  2.00566512 48386
GSAT0211 (GALILEO 14)   
1 41549U 16030A   22259.70619755  .00000031  00000+0  00000+0 0  9995
2 41549  55.7147 259.3795 0004630 305.6879  54.2735  1.70474942 39326
GSAT0210 (GALILEO 13)   
1 41550U 16030B   22261.17195970  .00000036  00000+0  00000+0 0  9994
2 41550  55.7124 259.3406 0004651 279.3113  80.6452  1.70474968 39320
INSAT-3DR               
1 41752U 16054A   22261.43488154 -.00000084  00000+0  00000+0 0  9996
2 41752   0.0504  90.3646 0012133 172.4660 325.0866  1.00271863 22084
GSAT0207 (GALILEO 15)   
1 41859U 16069A   22260.24815044 -.00000012  00000+0  00000+0 0  9991
2 41859  54.8379 139.0379 0002282 319.7755  40.2887  1.70472783 36061
GSAT0212 (GALILEO 16)   
1 41860U 16069B   22260.68812452 -.00000011  00000+0  00000+0 0  9990
2 41860  54.8358 139.0231 0002143 357.1517   2.9279  1.70472702 36325
GSAT0213 (GALILEO 17)   
1 41861U 16069C   22259.88026273 -.00000013  00000+0  00000+0 0  9991
2 41861  54.8377 139.0508 0002424 273.4911  86.5627  1.70472974 36173
GSAT0214 (GALILEO 18)   
1 41862U 16069D   22260.02740977 -.00000013  00000+0  00000+0 0  9994
2 41862  54.8358 139.0412 0001558 283.7513  76.3127  1.70472887 36306
GOES 16                 
1 41866U 16071A   22261.48089704 -.00000255  00000+0  00000+0 0  9994
2 41866   0.0701 287.1093 0000663 314.9475 213.2501  1.00271929 21393
GSAT-17                 
1 42815U 17040B   22261.08003573 -.00000264  00000+0  00000+0 0  9992
2 42815   0.0387  94.0304 0004487 155.1532 230.1172  1.00270553 19150
GSAT0215 (GALILEO 19)   
1 43055U 17079A   22261.10384367  .00000035  00000+0  00000+0 0  9992
2 43055  55.6888 259.1721 0004119 274.1424  85.8191  1.70474146 29664
GSAT0216 (GALILEO 20)   
1 43056U 17079B   22259.63624145  .00000030  00000+0  00000+0 0  9994
2 43056  55.6902 259.2123 0005791 276.9239  83.0142  1.70474279 29652
GSAT0217 (GALILEO 21)   
1 43057U 17079C   22260.44309085  .00000033  00000+0  00000+0 0  9992
2 43057  55.6874 259.1897 0005253 286.2744  73.6745  1.70474276 29657
GSAT0218 (GALILEO 22)   
1 43058U 17079D   22258.90337007  .00000027  00000+0  00000+0 0  9999
2 43058  55.6889 259.2296 0006253 273.4300  86.5001  1.70474238 29651
GOES 17                 
1 43226U 18022A   22260.74711247  .00000092  00000+0  00000+0 0  9994
2 43226   0.0802 283.1965 0000307 281.9254 283.1687  1.00271535 16707
